[{"OBJECT_NAME":"GEESAT-3 04","OBJECT_ID":"2024-159D","EPOCH":"2026-03-09T22:19:33.498048","MEAN_MOTION":14.82863274,"ECCENTRICITY":0.00023149,"INCLINATION":49.9968,"RA_OF_ASC_NODE":93.6618,"ARG_OF_PERICENTER":46.406,"MEAN_ANOMALY":313.707,"EPHEMERIS_TYPE":0,"CLASSIFICATION_TYPE":"U","NORAD_CAT_ID":61014,"ELEMENT_SET_NO":999,"REV_AT_EPOCH":8327,"BSTAR":0.00041507261,"MEAN_MOTION_DOT":3.175e-5,"MEAN_MOTION_DDOT":0},{"OBJECT_NAME":"KUIPER-00210","OBJECT_ID":"2025-301P","EPOCH":"2026-03-09T22:00:01.999584","MEAN_MOTION":14.81753192,"ECCENTRICITY":0.00020451,"INCLINATION":51.899,"RA_OF_ASC_NODE":72.1231,"ARG_OF_PERICENTER":117.4503,"MEAN_ANOMALY":206.8766,"EPHEMERIS_TYPE":0,"CLASSIFICATION_TYPE":"U","NORAD_CAT_ID":67146,"ELEMENT_SET_NO":999,"REV_AT_EPOCH":580,"BSTAR":0.0025283371,"MEAN_MOTION_DOT":0.00019966,"MEAN_MOTION_DDOT":0}]
